start=new Date('2022-10-02T00:00:00.000Z').valueOf();
sats=[{"DECAY_DATE":null,"ARG_OF_PERICENTER":"62.5377","PERIOD":"95.592","REV_AT_EPOCH":"14059","ELEMENT_SET_NO":"999","REF_FRAME":"TEME","LAUNCH_DATE":"2020-03-18","CLASSIFICATION_TYPE":"U","MEAN_ELEMENT_THEORY":"SGP4","OBJECT_TYPE":"PAYLOAD","RCS_SIZE":"LARGE","EPHEMERIS_TYPE":"0","SITE":"AFETR","ECCENTRICITY":"0.00015450","TLE_LINE1":"1 45372U 20019N   22274.83243557  .00000219  00000-0  33584-4 0  9996","TIME_SYSTEM":"UTC","MEAN_MOTION_DOT":"0.00000219","INCLINATION":"53.0541","TLE_LINE2":"2 45372  53.0541  39.8837 0001545  62.5377 297.5769 15.06407520140598","BSTAR":"0.00003358400000","OBJECT_ID":"2020-019N","SEMIMAJOR_AXIS":"6925.326","RA_OF_ASC_NODE":"39.8837","APOAPSIS":"548.260","MEAN_ANOMALY":"297.5769","NORAD_CAT_ID":"45372","PERIAPSIS":"546.121","FILE":"3588844","OBJECT_NAME":"STARLINK-1288","CENTER_NAME":"EARTH","EPOCH":"2022-10-01T19:58:42.433248","COUNTRY_CODE":"US","MEAN_MOTION_DDOT":"0.0000000000000","GP_ID":"213974185","MEAN_MOTION":"15.06407520"},{"APOAPSIS":"548.130","RA_OF_ASC_NODE":"39.9696","BSTAR":"0.00036185000000","TLE_LINE2":"2 45373  53.0553  39.9696 0001360  74.9782 285.1357 15.06408320140593","OBJECT_ID":"2020-019P","SEMIMAJOR_AXIS":"6925.323","FILE":"3588844","PERIAPSIS":"546.246","EPOCH":"2022-10-01T19:32:10.122720","CENTER_NAME":"EARTH","OBJECT_NAME":"STARLINK-1295","MEAN_ANOMALY":"285.1357","NORAD_CAT_ID":"45373","MEAN_MOTION_DDOT":"0.0000000000000","COUNTRY_CODE":"US","MEAN_MOTION":"15.06408320","GP_ID":"213975435","REF_FRAME":"TEME","ARG_OF_PERICENTER":"74.9782","PERIOD":"95.592","DECAY_DATE":null,"ELEMENT_SET_NO":"999","REV_AT_EPOCH":"14059","MEAN_ELEMENT_THEORY":"SGP4","OBJECT_TYPE":"PAYLOAD","LAUNCH_DATE":"2020-03-18","CLASSIFICATION_TYPE":"U","SITE":"AFETR","EPHEMERIS_TYPE":"0","ECCENTRICITY":"0.00013600","RCS_SIZE":"LARGE","INCLINATION":"53.0553","MEAN_MOTION_DOT":"0.00005114","TLE_LINE1":"1 45373U 20019P   22274.81400605  .00005114  00000-0  36185-3 0  9992","TIME_SYSTEM":"UTC"},{"DECAY_DATE":null,"ARG_OF_PERICENTER":"83.0412","PERIOD":"95.592","REV_AT_EPOCH":"14059","ELEMENT_SET_NO":"999","REF_FRAME":"TEME","LAUNCH_DATE":"2020-03-18","CLASSIFICATION_TYPE":"U","MEAN_ELEMENT_THEORY":"SGP4","OBJECT_TYPE":"PAYLOAD","RCS_SIZE":"LARGE","EPHEMERIS_TYPE":"0","SITE":"AFETR","ECCENTRICITY":"0.00013600","TLE_LINE1":"1 45374U 20019Q   22274.81031979  .00000400  00000-0  45732-4 0  9999","TIME_SYSTEM":"UTC","MEAN_MOTION_DOT":"0.00000400","INCLINATION":"53.0566","TLE_LINE2":"2 45374  53.0566  39.9919 0001360  83.0412 277.0732 15.06405307140596","BSTAR":"0.00004573200000","SEMIMAJOR_AXIS":"6925.332","OBJECT_ID":"2020-019Q","RA_OF_ASC_NODE":"39.9919","APOAPSIS":"548.139","NORAD_CAT_ID":"45374","MEAN_ANOMALY":"277.0732","PERIAPSIS":"546.255","FILE":"3588844","CENTER_NAME":"EARTH","OBJECT_NAME":"STARLINK-1300","EPOCH":"2022-10-01T19:26:51.629856","COUNTRY_CODE":"US","MEAN_MOTION_DDOT":"0.0000000000000","GP_ID":"213975186","MEAN_MOTION":"15.06405307"},{"ECCENTRICITY":"0.00014300","SITE":"AFETR","EPHEMERIS_TYPE":"0","RCS_SIZE":"LARGE","MEAN_MOTION_DOT":"0.00000999","INCLINATION":"53.0554","TIME_SYSTEM":"UTC","TLE_LINE1":"1 45375U 20019R   22274.82506504  .00000999  00000-0  85905-4 0  9991","REF_FRAME":"TEME","REV_AT_EPOCH":"14059","ELEMENT_SET_NO":"999","DECAY_DATE":null,"PERIOD":"95.592","ARG_OF_PERICENTER":"71.2476","OBJECT_TYPE":"PAYLOAD","MEAN_ELEMENT_THEORY":"SGP4","CLASSIFICATION_TYPE":"U","LAUNCH_DATE":"2020-03-18","MEAN_MOTION_DDOT":"0.0000000000000","COUNTRY_CODE":"US","MEAN_MOTION":"15.06409226","GP_ID":"213973936","RA_OF_ASC_NODE":"39.9123","APOAPSIS":"548.176","OBJECT_ID":"2020-019R","SEMIMAJOR_AXIS":"6925.320","BSTAR":"0.00008590500000","TLE_LINE2":"2 45375  53.0554  39.9123 0001430  71.2476 288.8668 15.06409226140590","OBJECT_NAME":"STARLINK-1302","CENTER_NAME":"EARTH","EPOCH":"2022-10-01T19:48:05.619456","PERIAPSIS":"546.195","FILE":"3588844","MEAN_ANOMALY":"288.8668","NORAD_CAT_ID":"45375"},{"DECAY_DATE":null,"ARG_OF_PERICENTER":"73.2518","PERIOD":"95.591","REV_AT_EPOCH":"14058","ELEMENT_SET_NO":"999","REF_FRAME":"TEME","LAUNCH_DATE":"2020-03-18","CLASSIFICATION_TYPE":"U","MEAN_ELEMENT_THEORY":"SGP4","OBJECT_TYPE":"PAYLOAD","RCS_SIZE":"LARGE","EPHEMERIS_TYPE":"0","SITE":"AFETR","ECCENTRICITY":"0.00013800","TLE_LINE1":"1 45376U 20019S   22274.77714503  .00004857  00000-0  34462-3 0  9994","TIME_SYSTEM":"UTC","MEAN_MOTION_DOT":"0.00004857","INCLINATION":"53.0548","TLE_LINE2":"2 45376  53.0548  40.1344 0001380  73.2518 286.8622 15.06415083140581","BSTAR":"0.00034462000000","OBJECT_ID":"2020-019S","SEMIMAJOR_AXIS":"6925.302","RA_OF_ASC_NODE":"40.1344","APOAPSIS":"548.123","MEAN_ANOMALY":"286.8622","NORAD_CAT_ID":"45376","PERIAPSIS":"546.212","FILE":"3588844","OBJECT_NAME":"STARLINK-1304","CENTER_NAME":"EARTH","EPOCH":"2022-10-01T18:39:05.330592","COUNTRY_CODE":"US","MEAN_MOTION_DDOT":"0.0000000000000","GP_ID":"213974684","MEAN_MOTION":"15.06415083"},{"MEAN_MOTION_DOT":"0.00000336","INCLINATION":"53.0558","TIME_SYSTEM":"UTC","TLE_LINE1":"1 45377U 20019T   22274.73661083  .00000336  00000-0  41451-4 0  9990","ECCENTRICITY":"0.00013650","EPHEMERIS_TYPE":"0","SITE":"AFETR","RCS_SIZE":"LARGE","OBJECT_TYPE":"PAYLOAD","MEAN_ELEMENT_THEORY":"SGP4","CLASSIFICATION_TYPE":"U","LAUNCH_DATE":"2020-03-18","REF_FRAME":"TEME","ELEMENT_SET_NO":"999","REV_AT_EPOCH":"14058","PERIOD":"95.592","ARG_OF_PERICENTER":"72.6094","DECAY_DATE":null,"MEAN_MOTION":"15.06402409","GP_ID":"213974936","MEAN_MOTION_DDOT":"0.0000000000000","COUNTRY_CODE":"US","EPOCH":"2022-10-01T17:40:43.175712","OBJECT_NAME":"STARLINK-1305","CENTER_NAME":"EARTH","FILE":"3588844","PERIAPSIS":"546.261","NORAD_CAT_ID":"45377","MEAN_ANOMALY":"287.5044","APOAPSIS":"548.151","RA_OF_ASC_NODE":"40.3099","OBJECT_ID":"2020-019T","SEMIMAJOR_AXIS":"6925.341","TLE_LINE2":"2 45377  53.0558  40.3099 0001365  72.6094 287.5044 15.06402409140581","BSTAR":"0.00004145100000"},{"GP_ID":"213975686","MEAN_MOTION":"15.06380760","COUNTRY_CODE":"US","MEAN_MOTION_DDOT":"0.0000000000000","MEAN_ANOMALY":"290.9358","NORAD_CAT_ID":"45378","EPOCH":"2022-10-01T19:00:20.620512","OBJECT_NAME":"STARLINK-1310","CENTER_NAME":"EARTH","FILE":"3588844","PERIAPSIS":"546.262","SEMIMAJOR_AXIS":"6925.408","OBJECT_ID":"2020-019U","BSTAR":"-0.00023761000000","TLE_LINE2":"2 45378  53.0560  40.0657 0001459  69.1787 290.9358 15.06380760140598","APOAPSIS":"548.283","RA_OF_ASC_NODE":"40.0657","TIME_SYSTEM":"UTC","TLE_LINE1":"1 45378U 20019U   22274.79190533 -.00003817  00000-0 -23761-3 0  9996","INCLINATION":"53.0560","MEAN_MOTION_DOT":"-0.00003817","RCS_SIZE":"LARGE","ECCENTRICITY":"0.00014590","EPHEMERIS_TYPE":"0","SITE":"AFETR","CLASSIFICATION_TYPE":"U","LAUNCH_DATE":"2020-03-18","OBJECT_TYPE":"PAYLOAD","MEAN_ELEMENT_THEORY":"SGP4","ELEMENT_SET_NO":"999","REV_AT_EPOCH":"14059","PERIOD":"95.593","ARG_OF_PERICENTER":"69.1787","DECAY_DATE":null,"REF_FRAME":"TEME"},{"OBJECT_TYPE":"PAYLOAD","MEAN_ELEMENT_THEORY":"SGP4","CLASSIFICATION_TYPE":"U","LAUNCH_DATE":"2020-03-18","REF_FRAME":"TEME","ELEMENT_SET_NO":"999","REV_AT_EPOCH":"14058","PERIOD":"95.591","ARG_OF_PERICENTER":"77.6626","DECAY_DATE":null,"INCLINATION":"53.0562","MEAN_MOTION_DOT":"0.00001266","TIME_SYSTEM":"UTC","TLE_LINE1":"1 45379U 20019V   22274.72923314  .00001266  00000-0  10383-3 0  9991","ECCENTRICITY":"0.00015250","EPHEMERIS_TYPE":"0","SITE":"AFETR","RCS_SIZE":"LARGE","EPOCH":"2022-10-01T17:30:05.743296","CENTER_NAME":"EARTH","OBJECT_NAME":"STARLINK-1319","FILE":"3588844","PERIAPSIS":"546.123","NORAD_CAT_ID":"45379","MEAN_ANOMALY":"282.4534","APOAPSIS":"548.236","RA_OF_ASC_NODE":"40.3501","OBJECT_ID":"2020-019V","SEMIMAJOR_AXIS":"6925.314","BSTAR":"0.00010383000000","TLE_LINE2":"2 45379  53.0562  40.3501 0001525  77.6626 282.4534 15.06411133140582","MEAN_MOTION":"15.06411133","GP_ID":"213974434","MEAN_MOTION_DDOT":"0.0000000000000","COUNTRY_CODE":"US"},{"LAUNCH_DATE":"2020-03-18","CLASSIFICATION_TYPE":"U","MEAN_ELEMENT_THEORY":"SGP4","OBJECT_TYPE":"PAYLOAD","DECAY_DATE":null,"PERIOD":"95.591","ARG_OF_PERICENTER":"60.0530","REV_AT_EPOCH":"14086","ELEMENT_SET_NO":"999","REF_FRAME":"TEME","TLE_LINE1":"1 45380U 20019W   22274.79372752  .00008019  00000-0  55630-3 0  9991","TIME_SYSTEM":"UTC","MEAN_MOTION_DOT":"0.00008019","INCLINATION":"53.0549","RCS_SIZE":"LARGE","SITE":"AFETR","EPHEMERIS_TYPE":"0","ECCENTRICITY":"0.00015280","NORAD_CAT_ID":"45380","MEAN_ANOMALY":"300.0611","PERIAPSIS":"546.090","FILE":"3588844","OBJECT_NAME":"STARLINK-1207","CENTER_NAME":"EARTH","EPOCH":"2022-10-01T19:02:58.057728","BSTAR":"0.00055630000000","TLE_LINE2":"2 45380  53.0549  20.0751 0001528  60.0530 300.0611 15.06421354140864","OBJECT_ID":"2020-019W","SEMIMAJOR_AXIS":"6925.283","RA_OF_ASC_NODE":"20.0751","APOAPSIS":"548.206","GP_ID":"213974186","MEAN_MOTION":"15.06421354","COUNTRY_CODE":"US","MEAN_MOTION_DDOT":"0.0000000000000"},{"APOAPSIS":"548.001","RA_OF_ASC_NODE":"20.0243","TLE_LINE2":"2 45381  53.0551  20.0243 0001198  82.7139 277.3986 15.06413698140866","BSTAR":"0.00031639000000","SEMIMAJOR_AXIS":"6925.307","OBJECT_ID":"2020-019X","FILE":"3588844","PERIAPSIS":"546.342","EPOCH":"2022-10-01T19:18:53.777376","CENTER_NAME":"EARTH","OBJECT_NAME":"STARLINK-1258","MEAN_ANOMALY":"277.3986","NORAD_CAT_ID":"45381","MEAN_MOTION_DDOT":"0.0000000000000","COUNTRY_CODE":"US","MEAN_MOTION":"15.06413698","GP_ID":"213975436","REF_FRAME":"TEME","PERIOD":"95.591","ARG_OF_PERICENTER":"82.7139","DECAY_DATE":null,"ELEMENT_SET_NO":"999","REV_AT_EPOCH":"14086","MEAN_ELEMENT_THEORY":"SGP4","OBJECT_TYPE":"PAYLOAD","LAUNCH_DATE":"2020-03-18","CLASSIFICATION_TYPE":"U","EPHEMERIS_TYPE":"0","SITE":"AFETR","ECCENTRICITY":"0.00011980","RCS_SIZE":"LARGE","INCLINATION":"53.0551","MEAN_MOTION_DOT":"0.00004436","TLE_LINE1":"1 45381U 20019X   22274.80478909  .00004436  00000-0  31639-3 0  9997","TIME_SYSTEM":"UTC"}];
